start=new Date('2022-08-15T00:00:00.000Z').valueOf();
sats=[{"MEAN_MOTION_DDOT":"0.0000000000000","BSTAR":"0.00006785400000","INCLINATION":"53.2178","CENTER_NAME":"EARTH","SEMIMAJOR_AXIS":"6917.836","ELEMENT_SET_NO":"999","NORAD_CAT_ID":"49430","REF_FRAME":"TEME","OBJECT_ID":"2021-104Y","PERIOD":"95.437","TLE_LINE1":"1 49430U 21104Y   22226.72555089  .00000792  00000-0  67854-4 0  9995","APOAPSIS":"540.724","REV_AT_EPOCH":"4193","EPOCH":"2022-08-14T17:24:47.596896","MEAN_ANOMALY":"282.3038","ECCENTRICITY":"0.00014790","COUNTRY_CODE":"US","GP_ID":"210234569","SITE":"AFETR","OBJECT_TYPE":"PAYLOAD","EPHEMERIS_TYPE":"0","MEAN_MOTION":"15.08854514","DECAY_DATE":null,"TIME_SYSTEM":"UTC","FILE":"3536615","ARG_OF_PERICENTER":"77.8119","RA_OF_ASC_NODE":"318.3687","CLASSIFICATION_TYPE":"U","RCS_SIZE":"LARGE","LAUNCH_DATE":"2021-11-13","MEAN_MOTION_DOT":"0.00000792","OBJECT_NAME":"STARLINK-3138","MEAN_ELEMENT_THEORY":"SGP4","TLE_LINE2":"2 49430  53.2178 318.3687 0001479  77.8119 282.3038 15.08854514 41932","PERIAPSIS":"538.678"},{"NORAD_CAT_ID":"49431","INCLINATION":"53.2186","CENTER_NAME":"EARTH","SEMIMAJOR_AXIS":"6917.952","ELEMENT_SET_NO":"999","BSTAR":"-0.00010513000000","MEAN_MOTION_DDOT":"0.0000000000000","ECCENTRICITY":"0.00011960","COUNTRY_CODE":"US","GP_ID":"210233320","REV_AT_EPOCH":"4193","APOAPSIS":"540.645","EPOCH":"2022-08-14T18:03:16.593696","MEAN_ANOMALY":"284.3661","TLE_LINE1":"1 49431U 21104Z   22226.75227539 -.00001959  00000-0 -10513-3 0  9992","REF_FRAME":"TEME","OBJECT_ID":"2021-104Z","PERIOD":"95.439","EPHEMERIS_TYPE":"0","MEAN_MOTION":"15.08816431","DECAY_DATE":null,"OBJECT_TYPE":"PAYLOAD","SITE":"AFETR","OBJECT_NAME":"STARLINK-3153","MEAN_MOTION_DOT":"-0.00001959","MEAN_ELEMENT_THEORY":"SGP4","TLE_LINE2":"2 49431  53.2186 318.2328 0001196  75.7464 284.3661 15.08816431 41939","PERIAPSIS":"538.990","RA_OF_ASC_NODE":"318.2328","FILE":"3536615","ARG_OF_PERICENTER":"75.7464","CLASSIFICATION_TYPE":"U","LAUNCH_DATE":"2021-11-13","RCS_SIZE":"LARGE","TIME_SYSTEM":"UTC"},{"OBJECT_NAME":"STARLINK-3158","MEAN_MOTION_DOT":"-0.00016103","TLE_LINE2":"2 49432  53.2164 308.8160 0002147  23.2468 336.8621 15.08909835 42058","MEAN_ELEMENT_THEORY":"SGP4","PERIAPSIS":"538.047","TIME_SYSTEM":"UTC","FILE":"3536615","ARG_OF_PERICENTER":"23.2468","RA_OF_ASC_NODE":"308.8160","CLASSIFICATION_TYPE":"U","LAUNCH_DATE":"2021-11-13","RCS_SIZE":"LARGE","EPHEMERIS_TYPE":"0","MEAN_MOTION":"15.08909835","DECAY_DATE":null,"OBJECT_TYPE":"PAYLOAD","SITE":"AFETR","REV_AT_EPOCH":"4205","APOAPSIS":"541.017","EPOCH":"2022-08-14T14:59:04.920000","MEAN_ANOMALY":"336.8621","ECCENTRICITY":"0.00021470","COUNTRY_CODE":"US","GP_ID":"210233570","REF_FRAME":"TEME","OBJECT_ID":"2021-104AA","PERIOD":"95.433","TLE_LINE1":"1 49432U 21104AA  22226.62436250 -.00016103  00000-0 -99393-3 0  9991","CENTER_NAME":"EARTH","INCLINATION":"53.2164","SEMIMAJOR_AXIS":"6917.667","ELEMENT_SET_NO":"999","NORAD_CAT_ID":"49432","MEAN_MOTION_DDOT":"0.0000000000000","BSTAR":"-0.00099393000000"},{"NORAD_CAT_ID":"49433","INCLINATION":"53.2172","CENTER_NAME":"EARTH","SEMIMAJOR_AXIS":"6917.874","ELEMENT_SET_NO":"999","BSTAR":"0.00010214000000","MEAN_MOTION_DDOT":"0.0000000000000","ECCENTRICITY":"0.00021290","COUNTRY_CODE":"US","GP_ID":"210233819","REV_AT_EPOCH":"4328","APOAPSIS":"541.212","EPOCH":"2022-08-14T14:59:02.802336","MEAN_ANOMALY":"322.2846","TLE_LINE1":"1 49433U 21104AB  22226.62433799  .00001338  00000-0  10214-3 0  9994","REF_FRAME":"TEME","OBJECT_ID":"2021-104AB","PERIOD":"95.437","EPHEMERIS_TYPE":"0","MEAN_MOTION":"15.08842113","DECAY_DATE":null,"SITE":"AFETR","OBJECT_TYPE":"PAYLOAD","OBJECT_NAME":"STARLINK-3079","MEAN_MOTION_DOT":"0.00001338","TLE_LINE2":"2 49433  53.2172 298.8093 0002129  37.8296 322.2846 15.08842113 43280","MEAN_ELEMENT_THEORY":"SGP4","PERIAPSIS":"538.266","ARG_OF_PERICENTER":"37.8296","FILE":"3536615","RA_OF_ASC_NODE":"298.8093","CLASSIFICATION_TYPE":"U","LAUNCH_DATE":"2021-11-13","RCS_SIZE":"LARGE","TIME_SYSTEM":"UTC"},{"OBJECT_TYPE":"PAYLOAD","SITE":"AFETR","MEAN_MOTION":"15.08843578","DECAY_DATE":null,"EPHEMERIS_TYPE":"0","TIME_SYSTEM":"UTC","CLASSIFICATION_TYPE":"U","ARG_OF_PERICENTER":"66.9991","FILE":"3536350","RA_OF_ASC_NODE":"319.2754","LAUNCH_DATE":"2021-11-13","RCS_SIZE":"LARGE","MEAN_ELEMENT_THEORY":"SGP4","TLE_LINE2":"2 49434  53.2185 319.2754 0001373  66.9991 293.1146 15.08843578 42983","MEAN_MOTION_DOT":"-0.00000586","OBJECT_NAME":"STARLINK-3134","PERIAPSIS":"538.785","MEAN_MOTION_DDOT":"0.0000000000000","BSTAR":"-0.00001871700000","CENTER_NAME":"EARTH","INCLINATION":"53.2185","ELEMENT_SET_NO":"999","SEMIMAJOR_AXIS":"6917.869","NORAD_CAT_ID":"49434","REF_FRAME":"TEME","PERIOD":"95.437","OBJECT_ID":"2021-104AC","TLE_LINE1":"1 49434U 21104AC  22226.52315507 -.00000586  00000-0 -18717-4 0  9993","REV_AT_EPOCH":"4298","APOAPSIS":"540.684","MEAN_ANOMALY":"293.1146","EPOCH":"2022-08-14T12:33:20.598048","COUNTRY_CODE":"US","ECCENTRICITY":"0.00013730","GP_ID":"210201931"},{"DECAY_DATE":null,"MEAN_MOTION":"15.08837814","EPHEMERIS_TYPE":"0","OBJECT_TYPE":"PAYLOAD","SITE":"AFETR","TLE_LINE2":"2 49435  53.2169 299.3882 0001558  63.2239 296.8912 15.08837814 42174","MEAN_ELEMENT_THEORY":"SGP4","OBJECT_NAME":"STARLINK-3117","MEAN_MOTION_DOT":"-0.00000715","PERIAPSIS":"538.674","CLASSIFICATION_TYPE":"U","ARG_OF_PERICENTER":"63.2239","FILE":"3536350","RA_OF_ASC_NODE":"299.3882","LAUNCH_DATE":"2021-11-13","RCS_SIZE":"LARGE","TIME_SYSTEM":"UTC","NORAD_CAT_ID":"49435","INCLINATION":"53.2169","CENTER_NAME":"EARTH","ELEMENT_SET_NO":"999","SEMIMAJOR_AXIS":"6917.887","BSTAR":"-0.00002680800000","MEAN_MOTION_DDOT":"0.0000000000000","COUNTRY_CODE":"US","ECCENTRICITY":"0.00015580","GP_ID":"210202181","APOAPSIS":"540.830","REV_AT_EPOCH":"4217","MEAN_ANOMALY":"296.8912","EPOCH":"2022-08-14T11:54:59.071392","TLE_LINE1":"1 49435U 21104AD  22226.49651703 -.00000715  00000-0 -26808-4 0  9995","REF_FRAME":"TEME","PERIOD":"95.438","OBJECT_ID":"2021-104AD"},{"NORAD_CAT_ID":"49436","CENTER_NAME":"EARTH","INCLINATION":"53.2157","ELEMENT_SET_NO":"999","SEMIMAJOR_AXIS":"6917.867","BSTAR":"-0.00000431120000","MEAN_MOTION_DDOT":"0.0000000000000","COUNTRY_CODE":"US","ECCENTRICITY":"0.00017190","GP_ID":"210233070","REV_AT_EPOCH":"4220","APOAPSIS":"540.921","MEAN_ANOMALY":"303.6325","EPOCH":"2022-08-14T16:39:45.321984","TLE_LINE1":"1 49436U 21104AE  22226.69427456 -.00000357  00000-0 -43112-5 0  9994","REF_FRAME":"TEME","PERIOD":"95.437","OBJECT_ID":"2021-104AE","MEAN_MOTION":"15.08844454","DECAY_DATE":null,"EPHEMERIS_TYPE":"0","SITE":"AFETR","OBJECT_TYPE":"PAYLOAD","TLE_LINE2":"2 49436  53.2157 298.4859 0001719  56.4831 303.6325 15.08844454 42204","MEAN_ELEMENT_THEORY":"SGP4","OBJECT_NAME":"STARLINK-3049","MEAN_MOTION_DOT":"-0.00000357","PERIAPSIS":"538.543","CLASSIFICATION_TYPE":"U","ARG_OF_PERICENTER":"56.4831","FILE":"3536615","RA_OF_ASC_NODE":"298.4859","RCS_SIZE":"LARGE","LAUNCH_DATE":"2021-11-13","TIME_SYSTEM":"UTC"},{"TLE_LINE1":"1 49437U 21104AF  22226.68690559  .00001171  00000-0  91672-4 0  9996","REF_FRAME":"TEME","OBJECT_ID":"2021-104AF","PERIOD":"95.437","ECCENTRICITY":"0.00019990","COUNTRY_CODE":"US","GP_ID":"210234320","APOAPSIS":"541.114","REV_AT_EPOCH":"4220","EPOCH":"2022-08-14T16:29:08.642976","MEAN_ANOMALY":"318.0566","BSTAR":"0.00009167200000","MEAN_MOTION_DDOT":"0.0000000000000","NORAD_CAT_ID":"49437","CENTER_NAME":"EARTH","INCLINATION":"53.2159","SEMIMAJOR_AXIS":"6917.866","ELEMENT_SET_NO":"999","FILE":"3536615","RA_OF_ASC_NODE":"298.5430","ARG_OF_PERICENTER":"42.0580","CLASSIFICATION_TYPE":"U","RCS_SIZE":"LARGE","LAUNCH_DATE":"2021-11-13","TIME_SYSTEM":"UTC","OBJECT_NAME":"STARLINK-3130","MEAN_MOTION_DOT":"0.00001171","MEAN_ELEMENT_THEORY":"SGP4","TLE_LINE2":"2 49437  53.2159 298.5430 0001999  42.0580 318.0566 15.08844646 42205","PERIAPSIS":"538.348","SITE":"AFETR","OBJECT_TYPE":"PAYLOAD","EPHEMERIS_TYPE":"0","DECAY_DATE":null,"MEAN_MOTION":"15.08844646"},{"LAUNCH_DATE":"2021-11-13","RCS_SIZE":"LARGE","FILE":"3536350","RA_OF_ASC_NODE":"299.4455","ARG_OF_PERICENTER":"63.9457","CLASSIFICATION_TYPE":"U","TIME_SYSTEM":"UTC","PERIAPSIS":"538.699","MEAN_MOTION_DOT":"-0.00000803","OBJECT_NAME":"STARLINK-3044","MEAN_ELEMENT_THEORY":"SGP4","TLE_LINE2":"2 49438  53.2177 299.4455 0001522  63.9457 296.1691 15.08837951 42172","OBJECT_TYPE":"PAYLOAD","SITE":"AFETR","EPHEMERIS_TYPE":"0","DECAY_DATE":null,"MEAN_MOTION":"15.08837951","TLE_LINE1":"1 49438U 21104AG  22226.48452186 -.00000803  00000-0 -32346-4 0  9993","OBJECT_ID":"2021-104AG","PERIOD":"95.438","REF_FRAME":"TEME","GP_ID":"210201432","ECCENTRICITY":"0.00015220","COUNTRY_CODE":"US","EPOCH":"2022-08-14T11:37:42.688704","MEAN_ANOMALY":"296.1691","APOAPSIS":"540.805","REV_AT_EPOCH":"4217","BSTAR":"-0.00003234600000","MEAN_MOTION_DDOT":"0.0000000000000","NORAD_CAT_ID":"49438","SEMIMAJOR_AXIS":"6917.887","ELEMENT_SET_NO":"999","CENTER_NAME":"EARTH","INCLINATION":"53.2177"},{"NORAD_CAT_ID":"49439","CENTER_NAME":"EARTH","INCLINATION":"53.2178","ELEMENT_SET_NO":"999","SEMIMAJOR_AXIS":"6917.860","BSTAR":"0.00001242400000","MEAN_MOTION_DDOT":"0.0000000000000","COUNTRY_CODE":"US","ECCENTRICITY":"0.00018030","GP_ID":"210233321","REV_AT_EPOCH":"4220","APOAPSIS":"540.972","MEAN_ANOMALY":"310.7950","EPOCH":"2022-08-14T15:57:20.543904","TLE_LINE1":"1 49439U 21104AH  22226.66482111 -.00000090  00000-0  12424-4 0  9997","REF_FRAME":"TEME","PERIOD":"95.437","OBJECT_ID":"2021-104AH","MEAN_MOTION":"15.08846814","DECAY_DATE":null,"EPHEMERIS_TYPE":"0","SITE":"AFETR","OBJECT_TYPE":"PAYLOAD","TLE_LINE2":"2 49439  53.2178 298.6391 0001803  49.3199 310.7950 15.08846814 42200","MEAN_ELEMENT_THEORY":"SGP4","OBJECT_NAME":"STARLINK-3108","MEAN_MOTION_DOT":"-0.00000090","PERIAPSIS":"538.477","CLASSIFICATION_TYPE":"U","ARG_OF_PERICENTER":"49.3199","FILE":"3536615","RA_OF_ASC_NODE":"298.6391","RCS_SIZE":"LARGE","LAUNCH_DATE":"2021-11-13","TIME_SYSTEM":"UTC"}];
